{
    "links": {
        "self": "http://www.neowsapp.com/rest/v1/neo/3370285?api_key=iIulBulltgU6a56xZRHN4H3l9WmuAYTsLGpBGhQ2"
    },
    "id": "3370285",
    "neo_reference_id": "3370285",
    "name": "(2007 EU)",
    "designation": "2007 EU",
    "nasa_jpl_url": "http://ssd.jpl.nasa.gov/sbdb.cgi?sstr=3370285",
    "absolute_magnitude_h": 24.6,
    "estimated_diameter": {
        "kilometers": {
            "estimated_diameter_min": 0.0319561887,
            "estimated_diameter_max": 0.0714562102
        },
        "meters": {
            "estimated_diameter_min": 31.9561886721,
            "estimated_diameter_max": 71.4562101727
        },
        "miles": {
            "estimated_diameter_min": 0.0198566489,
            "estimated_diameter_max": 0.0444008168
        },
        "feet": {
            "estimated_diameter_min": 104.8431420431,
            "estimated_diameter_max": 234.436392583
        }
    },
    "is_potentially_hazardous_asteroid": false,
    "close_approach_data": [
        {
            "close_approach_date": "2007-03-03",
            "close_approach_date_full": "2007-Mar-03 19:25",
            "epoch_date_close_approach": 1172949900000,
            "relative_velocity": {
                "kilometers_per_second": "8.5897719201",
                "kilometers_per_hour": "30923.178912298",
                "miles_per_hour": "19214.4608080331"
            },
            "miss_distance": {
                "astronomical": "0.0334072184",
                "lunar": "12.9954079576",
                "kilometers": "4997648.715264808",
                "miles": "3105394.9125900304"
            },
            "orbiting_body": "Earth"
        }
    ],
    "orbital_data": {
        "orbit_id": "9",
        "orbit_determination_date": "2017-04-06 09:06:50",
        "first_observation_date": "2007-03-10",
        "last_observation_date": "2007-03-15",
        "data_arc_in_days": 5,
        "observations_used": 24,
        "orbit_uncertainty": "8",
        "minimum_orbit_intersection": ".0314222",
        "jupiter_tisserand_invariant": "4.579",
        "epoch_osculation": "2454171.5",
        "eccentricity": ".3063574191635242",
        "semi_major_axis": "1.444315893093471",
        "inclination": "13.24159681596342",
        "ascending_node_longitude": "164.1650190344095",
        "orbital_period": "634.0035828816767",
        "perihelion_distance": "1.001839003628495",
        "perihelion_argument": "334.5107319336726",
        "aphelion_distance": "1.886792782558448",
        "perihelion_time": "2454142.261944845717",
        "mean_anomaly": "16.60195642381138",
        "mean_motion": ".5678201349647363",
        "equinox": "J2000",
        "orbit_class": {
            "orbit_class_type": "APO",
            "orbit_class_description": "Near-Earth asteroid orbits which cross the Earth’s orbit similar to that of 1862 Apollo",
            "orbit_class_range": "a (semi-major axis) > 1.0 AU; q (perihelion) < 1.017 AU"
        }
    },
    "is_sentry_object": false
}